{
"type": "FeatureCollection",
"features": [
{ "type": "Feature", "properties": { "id": "relation\/5156469", "@id": "relation\/5156469", "addr:housenumber": "72", "addr:street": "Kanjokya Road", "building": "yes", "name": "", "amenity": "" }, "geometry": { "type": "Point", "coordinates": [ 32.593143356996322, 0.342122787035314 ] } },
{ "type": "Feature", "properties": { "id": "way\/152800948", "@id": "way\/152800948", "addr:housenumber": "69", "addr:street": "Bukoto Street", "building": "yes", "name": "", "amenity": "" }, "geometry": { "type": "Point", "coordinates": [ 32.591851413488989, 0.342334686276069 ] } },
{ "type": "Feature", "properties": { "id": "way\/152804613", "@id": "way\/152804613", "addr:housenumber": "96", "addr:street": "Bukoto Street", "building": "yes", "name": "", "amenity": "" }, "geometry": { "type": "Point", "coordinates": [ 32.592254206322153, 0.342797329602952 ] } },
{ "type": "Feature", "properties": { "id": "way\/152806645", "@id": "way\/152806645", "addr:housenumber": "", "addr:street": "Kiira Road", "building": "yes", "name": "", "amenity": "" }, "geometry": { "type": "Point", "coordinates": [ 32.594853486768599, 0.342740680882279 ] } },
{ "type": "Feature", "properties": { "id": "way\/264928399", "@id": "way\/264928399", "addr:housenumber": "134", "addr:street": "Bukoto Street", "building": "yes", "name": "", "amenity": "" }, "geometry": { "type": "Point", "coordinates": [ 32.594871645847718, 0.342422909478394 ] } },
{ "type": "Feature", "properties": { "id": "way\/319158148", "@id": "way\/319158148", "addr:housenumber": "62", "addr:street": "Kanjokya Street", "building": "commercial", "name": "Kanjokya House", "amenity": "" }, "geometry": { "type": "Point", "coordinates": [ 32.594253840888861, 0.34193529042057 ] } },
{ "type": "Feature", "properties": { "id": "way\/328567178", "@id": "way\/328567178", "addr:housenumber": "93", "addr:street": "Bukoto Street", "building": "yes", "name": "", "amenity": "" }, "geometry": { "type": "Point", "coordinates": [ 32.59417094709174, 0.342161294986305 ] } },
{ "type": "Feature", "properties": { "id": "way\/328567179", "@id": "way\/328567179", "addr:housenumber": "95", "addr:street": "Bukoto Street", "building": "detached", "name": "", "amenity": "" }, "geometry": { "type": "Point", "coordinates": [ 32.594453950865145, 0.342122059601215 ] } },
{ "type": "Feature", "properties": { "id": "way\/328722215", "@id": "way\/328722215", "addr:housenumber": "", "addr:street": "Kanjokya Street", "building": "detached", "name": "", "amenity": "" }, "geometry": { "type": "Point", "coordinates": [ 32.59481550747806, 0.341867797021744 ] } },
{ "type": "Feature", "properties": { "id": "way\/328722216", "@id": "way\/328722216", "addr:housenumber": "101", "addr:street": "Bukoto Street", "building": "yes", "name": "", "amenity": "" }, "geometry": { "type": "Point", "coordinates": [ 32.595048180365552, 0.342080628025528 ] } },
{ "type": "Feature", "properties": { "id": "way\/328722862", "@id": "way\/328722862", "addr:housenumber": "69", "addr:street": "Kanjokya Street", "building": "residential", "name": "", "amenity": "" }, "geometry": { "type": "Point", "coordinates": [ 32.594572049519037, 0.341487797280831 ] } },
{ "type": "Feature", "properties": { "id": "way\/328722863", "@id": "way\/328722863", "addr:housenumber": "", "addr:street": "", "building": "residential", "name": "", "amenity": "" }, "geometry": { "type": "Point", "coordinates": [ 32.594751306127925, 0.341258272967982 ] } },
{ "type": "Feature", "properties": { "id": "way\/328722864", "@id": "way\/328722864", "addr:housenumber": "", "addr:street": "Kanjokya Street", "building": "residential", "name": "", "amenity": "" }, "geometry": { "type": "Point", "coordinates": [ 32.594910005325538, 0.341391691618125 ] } },
{ "type": "Feature", "properties": { "id": "way\/328727066", "@id": "way\/328727066", "addr:housenumber": "", "addr:street": "", "building": "yes", "name": "", "amenity": "" }, "geometry": { "type": "Point", "coordinates": [ 32.594194300589209, 0.341289928335317 ] } },
{ "type": "Feature", "properties": { "id": "way\/328727068", "@id": "way\/328727068", "addr:housenumber": "", "addr:street": "Kanjokya Street", "building": "yes", "name": "", "amenity": "" }, "geometry": { "type": "Point", "coordinates": [ 32.594032008995001, 0.341552637422293 ] } },
{ "type": "Feature", "properties": { "id": "way\/328727073", "@id": "way\/328727073", "addr:housenumber": "", "addr:street": "", "building": "apartments", "name": "", "amenity": "" }, "geometry": { "type": "Point", "coordinates": [ 32.593971550500775, 0.341237635137283 ] } },
{ "type": "Feature", "properties": { "id": "way\/328727074", "@id": "way\/328727074", "addr:housenumber": "", "addr:street": "", "building": "yes", "name": "", "amenity": "" }, "geometry": { "type": "Point", "coordinates": [ 32.594321254481123, 0.341293642550506 ] } },
{ "type": "Feature", "properties": { "id": "way\/328727086", "@id": "way\/328727086", "addr:housenumber": "", "addr:street": "", "building": "residential", "name": "", "amenity": "" }, "geometry": { "type": "Point", "coordinates": [ 32.593662022698119, 0.341349867240415 ] } },
{ "type": "Feature", "properties": { "id": "way\/328727088", "@id": "way\/328727088", "addr:housenumber": "", "addr:street": "Prince Charles Drive", "building": "residential", "name": "", "amenity": "" }, "geometry": { "type": "Point", "coordinates": [ 32.5934471, 0.341252 ] } },
{ "type": "Feature", "properties": { "id": "way\/328727089", "@id": "way\/328727089", "addr:housenumber": "", "addr:street": "Kanjokya Street", "building": "residential", "name": "", "amenity": "" }, "geometry": { "type": "Point", "coordinates": [ 32.593706571413172, 0.341708596839097 ] } },
{ "type": "Feature", "properties": { "id": "way\/328727090", "@id": "way\/328727090", "addr:housenumber": "", "addr:street": "", "building": "residential", "name": "", "amenity": "" }, "geometry": { "type": "Point", "coordinates": [ 32.593441912056441, 0.341529172829274 ] } },
{ "type": "Feature", "properties": { "id": "way\/328727091", "@id": "way\/328727091", "addr:housenumber": "", "addr:street": "Prince Charles Drive", "building": "residential", "name": "Alliance House", "amenity": "" }, "geometry": { "type": "Point", "coordinates": [ 32.59322635572336, 0.341279049136993 ] } },
{ "type": "Feature", "properties": { "id": "way\/328727094", "@id": "way\/328727094", "addr:housenumber": "", "addr:street": "Kanjokya Street", "building": "residential", "name": "", "amenity": "" }, "geometry": { "type": "Point", "coordinates": [ 32.593513018517392, 0.341647689520021 ] } },
{ "type": "Feature", "properties": { "id": "way\/328731239", "@id": "way\/328731239", "addr:housenumber": "", "addr:street": "Kanjokya Street", "building": "yes", "name": "", "amenity": "" }, "geometry": { "type": "Point", "coordinates": [ 32.592428579990148, 0.341797765832836 ] } },
{ "type": "Feature", "properties": { "id": "way\/328731240", "@id": "way\/328731240", "addr:housenumber": "", "addr:street": "Prince Charles Drive", "building": "yes", "name": "", "amenity": "" }, "geometry": { "type": "Point", "coordinates": [ 32.591516239680224, 0.341437196131511 ] } },
{ "type": "Feature", "properties": { "id": "way\/328731241", "@id": "way\/328731241", "addr:housenumber": "", "addr:street": "Prince Charles Drive", "building": "yes", "name": "", "amenity": "" }, "geometry": { "type": "Point", "coordinates": [ 32.592031412400097, 0.341455988994348 ] } },
{ "type": "Feature", "properties": { "id": "way\/328731242", "@id": "way\/328731242", "addr:housenumber": "", "addr:street": "Prince Charles Drive", "building": "yes", "name": "", "amenity": "" }, "geometry": { "type": "Point", "coordinates": [ 32.591367145874685, 0.341359404290997 ] } },
{ "type": "Feature", "properties": { "id": "way\/328731243", "@id": "way\/328731243", "addr:housenumber": "", "addr:street": "", "building": "office", "name": "", "amenity": "" }, "geometry": { "type": "Point", "coordinates": [ 32.59146213662644, 0.341777189936258 ] } },
{ "type": "Feature", "properties": { "id": "way\/328731244", "@id": "way\/328731244", "addr:housenumber": "", "addr:street": "", "building": "yes", "name": "", "amenity": "" }, "geometry": { "type": "Point", "coordinates": [ 32.592111824471466, 0.34159169894121 ] } },
{ "type": "Feature", "properties": { "id": "way\/328731247", "@id": "way\/328731247", "addr:housenumber": "", "addr:street": "", "building": "yes", "name": "", "amenity": "" }, "geometry": { "type": "Point", "coordinates": [ 32.5917164, 0.34172145 ] } },
{ "type": "Feature", "properties": { "id": "way\/328731248", "@id": "way\/328731248", "addr:housenumber": "", "addr:street": "Kanjokya Street", "building": "yes", "name": "", "amenity": "" }, "geometry": { "type": "Point", "coordinates": [ 32.591591768975626, 0.341879903911294 ] } },
{ "type": "Feature", "properties": { "id": "way\/328731249", "@id": "way\/328731249", "addr:housenumber": "", "addr:street": "", "building": "yes", "name": "", "amenity": "" }, "geometry": { "type": "Point", "coordinates": [ 32.592585477210633, 0.341524558960805 ] } },
{ "type": "Feature", "properties": { "id": "way\/328731251", "@id": "way\/328731251", "addr:housenumber": "", "addr:street": "", "building": "yes", "name": "", "amenity": "" }, "geometry": { "type": "Point", "coordinates": [ 32.592378666914392, 0.34165486269582 ] } },
{ "type": "Feature", "properties": { "id": "way\/328731252", "@id": "way\/328731252", "addr:housenumber": "", "addr:street": "", "building": "yes", "name": "", "amenity": "" }, "geometry": { "type": "Point", "coordinates": [ 32.591259793508272, 0.3415537767718 ] } },
{ "type": "Feature", "properties": { "id": "way\/328731253", "@id": "way\/328731253", "addr:housenumber": "", "addr:street": "", "building": "yes", "name": "", "amenity": "" }, "geometry": { "type": "Point", "coordinates": [ 32.59259006568972, 0.341693209839728 ] } },
{ "type": "Feature", "properties": { "id": "way\/328731254", "@id": "way\/328731254", "addr:housenumber": "", "addr:street": "Prince Charles Drive", "building": "yes", "name": "", "amenity": "" }, "geometry": { "type": "Point", "coordinates": [ 32.592360273444292, 0.34141973147807 ] } },
{ "type": "Feature", "properties": { "id": "way\/328731255", "@id": "way\/328731255", "addr:housenumber": "", "addr:street": "Prince Charles Drive", "building": "yes", "name": "", "amenity": "" }, "geometry": { "type": "Point", "coordinates": [ 32.591781521001877, 0.341511455975196 ] } },
{ "type": "Feature", "properties": { "id": "way\/328731256", "@id": "way\/328731256", "addr:housenumber": "", "addr:street": "Kanjokya Street", "building": "yes", "name": "", "amenity": "" }, "geometry": { "type": "Point", "coordinates": [ 32.59185670935652, 0.341796383475274 ] } },
{ "type": "Feature", "properties": { "id": "way\/328731270", "@id": "way\/328731270", "addr:housenumber": "", "addr:street": "Prince Charles Drive", "building": "yes", "name": "", "amenity": "" }, "geometry": { "type": "Point", "coordinates": [ 32.592711577186144, 0.341363668772507 ] } },
{ "type": "Feature", "properties": { "id": "way\/328752074", "@id": "way\/328752074", "addr:housenumber": "", "addr:street": "", "building": "yes", "name": "", "amenity": "" }, "geometry": { "type": "Point", "coordinates": [ 32.594668100286533, 0.342673939604083 ] } },
{ "type": "Feature", "properties": { "id": "way\/328752077", "@id": "way\/328752077", "addr:housenumber": "81", "addr:street": "Bukoto Street", "building": "yes", "name": "", "amenity": "" }, "geometry": { "type": "Point", "coordinates": [ 32.593080504811319, 0.342305848803617 ] } },
{ "type": "Feature", "properties": { "id": "way\/328752080", "@id": "way\/328752080", "addr:housenumber": "", "addr:street": "", "building": "yes", "name": "", "amenity": "" }, "geometry": { "type": "Point", "coordinates": [ 32.594195023263985, 0.342755474616937 ] } },
{ "type": "Feature", "properties": { "id": "way\/328752082", "@id": "way\/328752082", "addr:housenumber": "", "addr:street": "", "building": "bungalow", "name": "", "amenity": "" }, "geometry": { "type": "Point", "coordinates": [ 32.593608204974373, 0.341979444377401 ] } },
{ "type": "Feature", "properties": { "id": "way\/328752088", "@id": "way\/328752088", "addr:housenumber": "83", "addr:street": "Bukoto Street", "building": "yes", "name": "", "amenity": "" }, "geometry": { "type": "Point", "coordinates": [ 32.59334202315052, 0.342339356147167 ] } },
{ "type": "Feature", "properties": { "id": "way\/328752091", "@id": "way\/328752091", "addr:housenumber": "", "addr:street": "", "building": "yes", "name": "", "amenity": "" }, "geometry": { "type": "Point", "coordinates": [ 32.593956023980176, 0.342782696638208 ] } },
{ "type": "Feature", "properties": { "id": "way\/328752096", "@id": "way\/328752096", "addr:housenumber": "87", "addr:street": "Bukoto Street", "building": "yes", "name": "Oasis House", "amenity": "" }, "geometry": { "type": "Point", "coordinates": [ 32.593640188065351, 0.342250884639563 ] } },
{ "type": "Feature", "properties": { "id": "way\/328752102", "@id": "way\/328752102", "addr:housenumber": "97", "addr:street": "Bukoto Street", "building": "office", "name": "", "amenity": "" }, "geometry": { "type": "Point", "coordinates": [ 32.594752229201696, 0.342116249557967 ] } },
{ "type": "Feature", "properties": { "id": "way\/328752105", "@id": "way\/328752105", "addr:housenumber": "", "addr:street": "", "building": "semidetached_house", "name": "", "amenity": "" }, "geometry": { "type": "Point", "coordinates": [ 32.595107512458405, 0.341775942228587 ] } },
{ "type": "Feature", "properties": { "id": "way\/328752110", "@id": "way\/328752110", "addr:housenumber": "89", "addr:street": "Bukoto Street", "building": "yes", "name": "", "amenity": "" }, "geometry": { "type": "Point", "coordinates": [ 32.59389466033025, 0.342206237647446 ] } },
{ "type": "Feature", "properties": { "id": "way\/328752113", "@id": "way\/328752113", "addr:housenumber": "", "addr:street": "Bukoto Street", "building": "yes", "name": "", "amenity": "" }, "geometry": { "type": "Point", "coordinates": [ 32.594003077062276, 0.342574203838572 ] } },
{ "type": "Feature", "properties": { "id": "way\/328752115", "@id": "way\/328752115", "addr:housenumber": "106\/108", "addr:street": "Bukoto Street", "building": "yes", "name": "", "amenity": "" }, "geometry": { "type": "Point", "coordinates": [ 32.592983917996065, 0.342666974160708 ] } },
{ "type": "Feature", "properties": { "id": "way\/328752119", "@id": "way\/328752119", "addr:housenumber": "102\/104", "addr:street": "Bukoto Street", "building": "yes", "name": "", "amenity": "" }, "geometry": { "type": "Point", "coordinates": [ 32.592767381098547, 0.342697576340641 ] } },
{ "type": "Feature", "properties": { "id": "way\/328752121", "@id": "way\/328752121", "addr:housenumber": "91", "addr:street": "Bukoto Street", "building": "office", "name": "", "amenity": "" }, "geometry": { "type": "Point", "coordinates": [ 32.594053132063578, 0.342119501695306 ] } },
{ "type": "Feature", "properties": { "id": "way\/328752123", "@id": "way\/328752123", "addr:housenumber": "118", "addr:street": "Bukoto Street", "building": "yes", "name": "Craa House", "amenity": "" }, "geometry": { "type": "Point", "coordinates": [ 32.593839753000616, 0.342625622365577 ] } },
{ "type": "Feature", "properties": { "id": "way\/328752126", "@id": "way\/328752126", "addr:housenumber": "", "addr:street": "Bukoto Street", "building": "yes", "name": "", "amenity": "" }, "geometry": { "type": "Point", "coordinates": [ 32.594640039910708, 0.342481862292289 ] } },
{ "type": "Feature", "properties": { "id": "way\/328752128", "@id": "way\/328752128", "addr:housenumber": "98\/100", "addr:street": "Bukoto Street", "building": "yes", "name": "", "amenity": "" }, "geometry": { "type": "Point", "coordinates": [ 32.592548621806181, 0.342736344628021 ] } },
{ "type": "Feature", "properties": { "id": "way\/328752130", "@id": "way\/328752130", "addr:housenumber": "", "addr:street": "", "building": "yes", "name": "", "amenity": "" }, "geometry": { "type": "Point", "coordinates": [ 32.592550167425415, 0.342823472495937 ] } },
{ "type": "Feature", "properties": { "id": "way\/328752133", "@id": "way\/328752133", "addr:housenumber": "79", "addr:street": "Bukoto Street", "building": "yes", "name": "", "amenity": "" }, "geometry": { "type": "Point", "coordinates": [ 32.592932999611691, 0.342409099611689 ] } },
{ "type": "Feature", "properties": { "id": "way\/328752136", "@id": "way\/328752136", "addr:housenumber": "84", "addr:street": "Kanjokya Street", "building": "office", "name": "", "amenity": "" }, "geometry": { "type": "Point", "coordinates": [ 32.593834149885929, 0.342025150436307 ] } },
{ "type": "Feature", "properties": { "id": "way\/328752138", "@id": "way\/328752138", "addr:housenumber": "75", "addr:street": "Bukoto Street", "building": "yes", "name": "", "amenity": "" }, "geometry": { "type": "Point", "coordinates": [ 32.592550024144693, 0.342394909979987 ] } },
{ "type": "Feature", "properties": { "id": "way\/328752141", "@id": "way\/328752141", "addr:housenumber": "85", "addr:street": "Bukoto Street", "building": "yes", "name": "", "amenity": "" }, "geometry": { "type": "Point", "coordinates": [ 32.593459834572599, 0.342303892316667 ] } },
{ "type": "Feature", "properties": { "id": "way\/328752147", "@id": "way\/328752147", "addr:housenumber": "77", "addr:street": "Bukoto Street", "building": "yes", "name": "", "amenity": "" }, "geometry": { "type": "Point", "coordinates": [ 32.592839339753716, 0.342351257104335 ] } },
{ "type": "Feature", "properties": { "id": "way\/328752151", "@id": "way\/328752151", "addr:housenumber": "73", "addr:street": "Bukoto Street", "building": "yes", "name": "", "amenity": "" }, "geometry": { "type": "Point", "coordinates": [ 32.592272827089459, 0.34248004688758 ] } },
{ "type": "Feature", "properties": { "id": "way\/328752154", "@id": "way\/328752154", "addr:housenumber": "", "addr:street": "", "building": "yes", "name": "", "amenity": "" }, "geometry": { "type": "Point", "coordinates": [ 32.594444183212801, 0.342711600497623 ] } },
{ "type": "Feature", "properties": { "id": "way\/328752157", "@id": "way\/328752157", "addr:housenumber": "64", "addr:street": "Kanjokya Road", "building": "yes", "name": "", "amenity": "" }, "geometry": { "type": "Point", "coordinates": [ 32.592224432904523, 0.342177842576163 ] } },
{ "type": "Feature", "properties": { "id": "way\/328752160", "@id": "way\/328752160", "addr:housenumber": "68", "addr:street": "Kanjokya Road", "building": "yes", "name": "", "amenity": "" }, "geometry": { "type": "Point", "coordinates": [ 32.592692520159574, 0.342185772629919 ] } },
{ "type": "Feature", "properties": { "id": "way\/328752163", "@id": "way\/328752163", "addr:housenumber": "", "addr:street": "", "building": "yes", "name": "", "amenity": "" }, "geometry": { "type": "Point", "coordinates": [ 32.593368962174893, 0.342006569314718 ] } },
{ "type": "Feature", "properties": { "id": "way\/328752166", "@id": "way\/328752166", "addr:housenumber": "70", "addr:street": "Kanjokya Road", "building": "bungalow", "name": "", "amenity": "" }, "geometry": { "type": "Point", "coordinates": [ 32.592918069130732, 0.342152474689617 ] } },
{ "type": "Feature", "properties": { "id": "way\/328752168", "@id": "way\/328752168", "addr:housenumber": "114", "addr:street": "Bukoto Street", "building": "yes", "name": "", "amenity": "" }, "geometry": { "type": "Point", "coordinates": [ 32.593456713428587, 0.34263953017779 ] } },
{ "type": "Feature", "properties": { "id": "way\/328752170", "@id": "way\/328752170", "addr:housenumber": "66", "addr:street": "Kanjokya Road", "building": "detached", "name": "", "amenity": "" }, "geometry": { "type": "Point", "coordinates": [ 32.592469987121774, 0.342211430956074 ] } },
{ "type": "Feature", "properties": { "id": "way\/328752172", "@id": "way\/328752172", "addr:housenumber": "116", "addr:street": "Bukoto Street", "building": "yes", "name": "", "amenity": "" }, "geometry": { "type": "Point", "coordinates": [ 32.593690447201851, 0.342611798134961 ] } },
{ "type": "Feature", "properties": { "id": "way\/328758235", "@id": "way\/328758235", "addr:housenumber": "", "addr:street": "", "building": "detached", "name": "", "amenity": "" }, "geometry": { "type": "Point", "coordinates": [ 32.594556202262112, 0.341900057613844 ] } },
{ "type": "Feature", "properties": { "id": "way\/328758236", "@id": "way\/328758236", "addr:housenumber": "", "addr:street": "", "building": "detached", "name": "", "amenity": "" }, "geometry": { "type": "Point", "coordinates": [ 32.59534526017304, 0.341725242626846 ] } },
{ "type": "Feature", "properties": { "id": "way\/328761572", "@id": "way\/328761572", "addr:housenumber": "136", "addr:street": "Bukoto Street", "building": "yes", "name": "", "amenity": "" }, "geometry": { "type": "Point", "coordinates": [ 32.594988667411052, 0.342412367281303 ] } },
{ "type": "Feature", "properties": { "id": "way\/328761573", "@id": "way\/328761573", "addr:housenumber": "110\/112", "addr:street": "Bukoto Street", "building": "yes", "name": "", "amenity": "" }, "geometry": { "type": "Point", "coordinates": [ 32.59317633496017, 0.342690951643999 ] } },
{ "type": "Feature", "properties": { "id": "way\/328761574", "@id": "way\/328761574", "addr:housenumber": "", "addr:street": "", "building": "yes", "name": "", "amenity": "" }, "geometry": { "type": "Point", "coordinates": [ 32.594337456676605, 0.342528630127014 ] } },
{ "type": "Feature", "properties": { "id": "way\/328761886", "@id": "way\/328761886", "addr:housenumber": "68", "addr:street": "Prince Charles Drive", "building": "yes", "name": "", "amenity": "" }, "geometry": { "type": "Point", "coordinates": [ 32.591063942626086, 0.34110963430048 ] } },
{ "type": "Feature", "properties": { "id": "way\/345095567", "@id": "way\/345095567", "addr:housenumber": "", "addr:street": "", "building": "residential", "name": "", "amenity": "" }, "geometry": { "type": "Point", "coordinates": [ 32.593195331623583, 0.34143519137658 ] } },
{ "type": "Feature", "properties": { "id": "way\/345095594", "@id": "way\/345095594", "addr:housenumber": "55", "addr:street": "Bukoto Street", "building": "yes", "name": "", "amenity": "" }, "geometry": { "type": "Point", "coordinates": [ 32.590982216924623, 0.342175369006832 ] } },
{ "type": "Feature", "properties": { "id": "way\/345095598", "@id": "way\/345095598", "addr:housenumber": "59", "addr:street": "Bukoto Street", "building": "yes", "name": "", "amenity": "" }, "geometry": { "type": "Point", "coordinates": [ 32.591159211998843, 0.342391614795145 ] } },
{ "type": "Feature", "properties": { "id": "way\/345095600", "@id": "way\/345095600", "addr:housenumber": "61", "addr:street": "Bukoto Street", "building": "yes", "name": "", "amenity": "" }, "geometry": { "type": "Point", "coordinates": [ 32.591288860872524, 0.342431461847197 ] } },
{ "type": "Feature", "properties": { "id": "way\/345095602", "@id": "way\/345095602", "addr:housenumber": "63", "addr:street": "Bukoto Street", "building": "yes", "name": "", "amenity": "" }, "geometry": { "type": "Point", "coordinates": [ 32.591441905678252, 0.342472910699814 ] } },
{ "type": "Feature", "properties": { "id": "way\/345095604", "@id": "way\/345095604", "addr:housenumber": "65", "addr:street": "Bukoto Street", "building": "yes", "name": "", "amenity": "" }, "geometry": { "type": "Point", "coordinates": [ 32.591568554526717, 0.342498715091207 ] } },
{ "type": "Feature", "properties": { "id": "way\/345095607", "@id": "way\/345095607", "addr:housenumber": "67", "addr:street": "Bukoto Street", "building": "yes", "name": "", "amenity": "" }, "geometry": { "type": "Point", "coordinates": [ 32.591725477211668, 0.342320281632702 ] } },
{ "type": "Feature", "properties": { "id": "way\/345095610", "@id": "way\/345095610", "addr:housenumber": "71", "addr:street": "Bukoto Street", "building": "yes", "name": "", "amenity": "" }, "geometry": { "type": "Point", "coordinates": [ 32.592003781165687, 0.342493987022433 ] } },
{ "type": "Feature", "properties": { "id": "way\/345467326", "@id": "way\/345467326", "addr:housenumber": "", "addr:street": "", "building": "yes", "name": "", "amenity": "" }, "geometry": { "type": "Point", "coordinates": [ 32.592926504688883, 0.341679869672712 ] } },
{ "type": "Feature", "properties": { "id": "way\/345467332", "@id": "way\/345467332", "addr:housenumber": "", "addr:street": "", "building": "yes", "name": "", "amenity": "" }, "geometry": { "type": "Point", "coordinates": [ 32.59145285, 0.34288325 ] } },
{ "type": "Feature", "properties": { "id": "way\/345467334", "@id": "way\/345467334", "addr:housenumber": "", "addr:street": "", "building": "yes", "name": "", "amenity": "" }, "geometry": { "type": "Point", "coordinates": [ 32.59209665, 0.34299945 ] } },
{ "type": "Feature", "properties": { "id": "way\/345467335", "@id": "way\/345467335", "addr:housenumber": "", "addr:street": "", "building": "yes", "name": "", "amenity": "" }, "geometry": { "type": "Point", "coordinates": [ 32.59179495, 0.3428201 ] } },
{ "type": "Feature", "properties": { "id": "way\/345467336", "@id": "way\/345467336", "addr:housenumber": "", "addr:street": "", "building": "commercial", "name": "Vanilla Creations", "amenity": "" }, "geometry": { "type": "Point", "coordinates": [ 32.591005451100294, 0.342683665888275 ] } },
{ "type": "Feature", "properties": { "id": "way\/345467337", "@id": "way\/345467337", "addr:housenumber": "", "addr:street": "", "building": "yes", "name": "", "amenity": "" }, "geometry": { "type": "Point", "coordinates": [ 32.59097135, 0.34285175 ] } },
{ "type": "Feature", "properties": { "id": "way\/346056835", "@id": "way\/346056835", "addr:housenumber": "96B", "addr:street": "Bukoto Street", "building": "yes", "name": "", "amenity": "" }, "geometry": { "type": "Point", "coordinates": [ 32.5923709592644, 0.342789896539299 ] } },
{ "type": "Feature", "properties": { "id": "way\/346071405", "@id": "way\/346071405", "addr:housenumber": "", "addr:street": "", "building": "yes", "name": "", "amenity": "" }, "geometry": { "type": "Point", "coordinates": [ 32.59330725, 0.34224085 ] } },
{ "type": "Feature", "properties": { "id": "way\/346071406", "@id": "way\/346071406", "addr:housenumber": "", "addr:street": "", "building": "yes", "name": "", "amenity": "" }, "geometry": { "type": "Point", "coordinates": [ 32.593250262423197, 0.342263815780818 ] } },
{ "type": "Feature", "properties": { "id": "way\/346071408", "@id": "way\/346071408", "addr:housenumber": "103", "addr:street": "Bukoto Street", "building": "yes", "name": "", "amenity": "" }, "geometry": { "type": "Point", "coordinates": [ 32.595238014441868, 0.342007756012015 ] } },
{ "type": "Feature", "properties": { "id": "way\/350173892", "@id": "way\/350173892", "addr:housenumber": "", "addr:street": "", "building": "yes", "name": "", "amenity": "" }, "geometry": { "type": "Point", "coordinates": [ 32.590936721503795, 0.343000147180544 ] } },
{ "type": "Feature", "properties": { "id": "way\/350173893", "@id": "way\/350173893", "addr:housenumber": "", "addr:street": "", "building": "yes", "name": "", "amenity": "" }, "geometry": { "type": "Point", "coordinates": [ 32.592280993713352, 0.343070142962811 ] } },
{ "type": "Feature", "properties": { "id": "way\/357090854", "@id": "way\/357090854", "addr:housenumber": "", "addr:street": "Prince Charles Drive", "building": "yes", "name": "", "amenity": "" }, "geometry": { "type": "Point", "coordinates": [ 32.592901160844896, 0.341346098913519 ] } },
{ "type": "Feature", "properties": { "id": "way\/357090867", "@id": "way\/357090867", "addr:housenumber": "70", "addr:street": "Prince Charles Drive", "building": "yes", "name": "", "amenity": "" }, "geometry": { "type": "Point", "coordinates": [ 32.591151013707886, 0.341275752740296 ] } },
{ "type": "Feature", "properties": { "id": "way\/364367722", "@id": "way\/364367722", "addr:housenumber": "", "addr:street": "", "building": "yes", "name": "", "amenity": "" }, "geometry": { "type": "Point", "coordinates": [ 32.592965426056722, 0.342924635120562 ] } },
{ "type": "Feature", "properties": { "id": "way\/364367724", "@id": "way\/364367724", "addr:housenumber": "", "addr:street": "", "building": "yes", "name": "", "amenity": "" }, "geometry": { "type": "Point", "coordinates": [ 32.592745501667679, 0.342953994530732 ] } },
{ "type": "Feature", "properties": { "id": "way\/364367725", "@id": "way\/364367725", "addr:housenumber": "", "addr:street": "", "building": "yes", "name": "", "amenity": "" }, "geometry": { "type": "Point", "coordinates": [ 32.592391203978742, 0.343079524227525 ] } },
{ "type": "Feature", "properties": { "id": "way\/364367726", "@id": "way\/364367726", "addr:housenumber": "", "addr:street": "", "building": "yes", "name": "", "amenity": "" }, "geometry": { "type": "Point", "coordinates": [ 32.593724157644353, 0.342906976642457 ] } },
{ "type": "Feature", "properties": { "id": "way\/364367728", "@id": "way\/364367728", "addr:housenumber": "", "addr:street": "", "building": "yes", "name": "", "amenity": "" }, "geometry": { "type": "Point", "coordinates": [ 32.592564056910746, 0.342978499262175 ] } },
{ "type": "Feature", "properties": { "id": "way\/407557242", "@id": "way\/407557242", "addr:housenumber": "", "addr:street": "", "building": "yes", "name": "", "amenity": "" }, "geometry": { "type": "Point", "coordinates": [ 32.594967577008838, 0.342731246547003 ] } },
{ "type": "Feature", "properties": { "id": "way\/437421143", "@id": "way\/437421143", "addr:housenumber": "", "addr:street": "", "building": "yes", "name": "", "amenity": "" }, "geometry": { "type": "Point", "coordinates": [ 32.590956574537657, 0.341406251322646 ] } },
{ "type": "Feature", "properties": { "id": "way\/437421389", "@id": "way\/437421389", "addr:housenumber": "", "addr:street": "Prince Charles Drive", "building": "yes", "name": "", "amenity": "" }, "geometry": { "type": "Point", "coordinates": [ 32.59424722069636, 0.341137958876328 ] } },
{ "type": "Feature", "properties": { "id": "way\/437421391", "@id": "way\/437421391", "addr:housenumber": "", "addr:street": "", "building": "yes", "name": "", "amenity": "" }, "geometry": { "type": "Point", "coordinates": [ 32.594479934588172, 0.34130671737466 ] } },
{ "type": "Feature", "properties": { "id": "way\/503808726", "@id": "way\/503808726", "addr:housenumber": "", "addr:street": "", "building": "", "name": "", "amenity": "hospital" }, "geometry": { "type": "Point", "coordinates": [ 32.595352786618598, 0.341695457539422 ] } },
{ "type": "Feature", "properties": { "id": "way\/503822390", "@id": "way\/503822390", "addr:housenumber": "", "addr:street": "", "building": "yes", "name": "", "amenity": "" }, "geometry": { "type": "Point", "coordinates": [ 32.594852826592493, 0.342522888072868 ] } },
{ "type": "Feature", "properties": { "id": "way\/503822391", "@id": "way\/503822391", "addr:housenumber": "", "addr:street": "", "building": "yes", "name": "", "amenity": "" }, "geometry": { "type": "Point", "coordinates": [ 32.59496373571654, 0.342521391611875 ] } },
{ "type": "Feature", "properties": { "id": "way\/503822395", "@id": "way\/503822395", "addr:housenumber": "", "addr:street": "", "building": "yes", "name": "", "amenity": "" }, "geometry": { "type": "Point", "coordinates": [ 32.594791980366068, 0.342497165312119 ] } },
{ "type": "Feature", "properties": { "id": "way\/503822399", "@id": "way\/503822399", "addr:housenumber": "", "addr:street": "", "building": "yes", "name": "", "amenity": "" }, "geometry": { "type": "Point", "coordinates": [ 32.594591513390519, 0.34244113213954 ] } },
{ "type": "Feature", "properties": { "id": "way\/503822400", "@id": "way\/503822400", "addr:housenumber": "", "addr:street": "", "building": "yes", "name": "", "amenity": "" }, "geometry": { "type": "Point", "coordinates": [ 32.59454335, 0.3424311 ] } },
{ "type": "Feature", "properties": { "id": "way\/503822401", "@id": "way\/503822401", "addr:housenumber": "", "addr:street": "", "building": "yes", "name": "", "amenity": "" }, "geometry": { "type": "Point", "coordinates": [ 32.594882971346017, 0.342619841069756 ] } },
{ "type": "Feature", "properties": { "id": "way\/503822402", "@id": "way\/503822402", "addr:housenumber": "", "addr:street": "", "building": "yes", "name": "", "amenity": "" }, "geometry": { "type": "Point", "coordinates": [ 32.594921962384362, 0.342656478529458 ] } },
{ "type": "Feature", "properties": { "id": "way\/504086857", "@id": "way\/504086857", "addr:housenumber": "", "addr:street": "", "building": "", "name": "", "amenity": "parking" }, "geometry": { "type": "Point", "coordinates": [ 32.591081414754385, 0.340996846541983 ] } },
{ "type": "Feature", "properties": { "id": "way\/504086860", "@id": "way\/504086860", "addr:housenumber": "", "addr:street": "", "building": "yes", "name": "", "amenity": "" }, "geometry": { "type": "Point", "coordinates": [ 32.591208716170286, 0.341078616740013 ] } },
{ "type": "Feature", "properties": { "id": "way\/617795008", "@id": "way\/617795008", "addr:housenumber": "", "addr:street": "", "building": "yes", "name": "", "amenity": "" }, "geometry": { "type": "Point", "coordinates": [ 32.591757449893898, 0.342183993998331 ] } },
{ "type": "Feature", "properties": { "id": "way\/617795009", "@id": "way\/617795009", "addr:housenumber": "", "addr:street": "", "building": "yes", "name": "", "amenity": "" }, "geometry": { "type": "Point", "coordinates": [ 32.5919966, 0.3422743 ] } },
{ "type": "Feature", "properties": { "id": "way\/617795010", "@id": "way\/617795010", "addr:housenumber": "", "addr:street": "", "building": "yes", "name": "", "amenity": "" }, "geometry": { "type": "Point", "coordinates": [ 32.591509463675116, 0.342345217719967 ] } },
{ "type": "Feature", "properties": { "id": "way\/617795011", "@id": "way\/617795011", "addr:housenumber": "", "addr:street": "", "building": "yes", "name": "", "amenity": "" }, "geometry": { "type": "Point", "coordinates": [ 32.591300431785491, 0.342291698120484 ] } },
{ "type": "Feature", "properties": { "id": "way\/617795012", "@id": "way\/617795012", "addr:housenumber": "", "addr:street": "", "building": "detached", "name": "", "amenity": "" }, "geometry": { "type": "Point", "coordinates": [ 32.590880823191547, 0.341878616803297 ] } },
{ "type": "Feature", "properties": { "id": "way\/617795013", "@id": "way\/617795013", "addr:housenumber": "", "addr:street": "", "building": "yes", "name": "", "amenity": "" }, "geometry": { "type": "Point", "coordinates": [ 32.59113875, 0.34201185 ] } },
{ "type": "Feature", "properties": { "id": "way\/617795014", "@id": "way\/617795014", "addr:housenumber": "", "addr:street": "", "building": "yes", "name": "", "amenity": "" }, "geometry": { "type": "Point", "coordinates": [ 32.591099335311135, 0.342097002153929 ] } },
{ "type": "Feature", "properties": { "id": "way\/617795015", "@id": "way\/617795015", "addr:housenumber": "", "addr:street": "", "building": "yes", "name": "", "amenity": "" }, "geometry": { "type": "Point", "coordinates": [ 32.591162830420096, 0.341651154354153 ] } },
{ "type": "Feature", "properties": { "id": "way\/617795016", "@id": "way\/617795016", "addr:housenumber": "", "addr:street": "", "building": "", "name": "", "amenity": "parking" }, "geometry": { "type": "Point", "coordinates": [ 32.5930784, 0.34202265 ] } },
{ "type": "Feature", "properties": { "id": "way\/617795017", "@id": "way\/617795017", "addr:housenumber": "", "addr:street": "", "building": "yes", "name": "", "amenity": "" }, "geometry": { "type": "Point", "coordinates": [ 32.593326521392022, 0.342146893570658 ] } },
{ "type": "Feature", "properties": { "id": "way\/617795018", "@id": "way\/617795018", "addr:housenumber": "", "addr:street": "", "building": "office", "name": "", "amenity": "" }, "geometry": { "type": "Point", "coordinates": [ 32.594045191835377, 0.341939351324166 ] } },
{ "type": "Feature", "properties": { "id": "way\/617795019", "@id": "way\/617795019", "addr:housenumber": "", "addr:street": "", "building": "", "name": "", "amenity": "parking" }, "geometry": { "type": "Point", "coordinates": [ 32.5947878, 0.34171175 ] } },
{ "type": "Feature", "properties": { "id": "way\/617795020", "@id": "way\/617795020", "addr:housenumber": "", "addr:street": "", "building": "", "name": "", "amenity": "parking" }, "geometry": { "type": "Point", "coordinates": [ 32.595009061797178, 0.341599871306118 ] } },
{ "type": "Feature", "properties": { "id": "way\/654714118", "@id": "way\/654714118", "addr:housenumber": "", "addr:street": "", "building": "yes", "name": "", "amenity": "" }, "geometry": { "type": "Point", "coordinates": [ 32.59244945, 0.3422615 ] } },
{ "type": "Feature", "properties": { "id": "way\/654714119", "@id": "way\/654714119", "addr:housenumber": "", "addr:street": "", "building": "yes", "name": "", "amenity": "" }, "geometry": { "type": "Point", "coordinates": [ 32.592474426229728, 0.342321412907776 ] } },
{ "type": "Feature", "properties": { "id": "way\/654714121", "@id": "way\/654714121", "addr:housenumber": "", "addr:street": "", "building": "yes", "name": "", "amenity": "" }, "geometry": { "type": "Point", "coordinates": [ 32.592423663318336, 0.342336173744943 ] } },
{ "type": "Feature", "properties": { "id": "way\/654714127", "@id": "way\/654714127", "addr:housenumber": "", "addr:street": "", "building": "yes", "name": "", "amenity": "" }, "geometry": { "type": "Point", "coordinates": [ 32.592452161195702, 0.342745389026802 ] } },
{ "type": "Feature", "properties": { "id": "way\/654714130", "@id": "way\/654714130", "addr:housenumber": "", "addr:street": "", "building": "yes", "name": "", "amenity": "" }, "geometry": { "type": "Point", "coordinates": [ 32.592586706866214, 0.343099381296217 ] } },
{ "type": "Feature", "properties": { "id": "way\/654714131", "@id": "way\/654714131", "addr:housenumber": "", "addr:street": "", "building": "yes", "name": "", "amenity": "" }, "geometry": { "type": "Point", "coordinates": [ 32.592367120364244, 0.34291374807811 ] } },
{ "type": "Feature", "properties": { "id": "way\/654714133", "@id": "way\/654714133", "addr:housenumber": "", "addr:street": "", "building": "yes", "name": "", "amenity": "" }, "geometry": { "type": "Point", "coordinates": [ 32.592295193140195, 0.342929725295581 ] } },
{ "type": "Feature", "properties": { "id": "way\/654714134", "@id": "way\/654714134", "addr:housenumber": "", "addr:street": "", "building": "yes", "name": "", "amenity": "" }, "geometry": { "type": "Point", "coordinates": [ 32.592040624378562, 0.343058789667565 ] } },
{ "type": "Feature", "properties": { "id": "way\/654714136", "@id": "way\/654714136", "addr:housenumber": "", "addr:street": "", "building": "yes", "name": "", "amenity": "" }, "geometry": { "type": "Point", "coordinates": [ 32.592076163163497, 0.343139236331211 ] } },
{ "type": "Feature", "properties": { "id": "way\/654714137", "@id": "way\/654714137", "addr:housenumber": "", "addr:street": "", "building": "yes", "name": "", "amenity": "" }, "geometry": { "type": "Point", "coordinates": [ 32.591837189224783, 0.342949670306458 ] } },
{ "type": "Feature", "properties": { "id": "way\/654714139", "@id": "way\/654714139", "addr:housenumber": "", "addr:street": "", "building": "yes", "name": "", "amenity": "" }, "geometry": { "type": "Point", "coordinates": [ 32.591789037064281, 0.343001078542889 ] } },
{ "type": "Feature", "properties": { "id": "way\/654714141", "@id": "way\/654714141", "addr:housenumber": "", "addr:street": "", "building": "yes", "name": "", "amenity": "" }, "geometry": { "type": "Point", "coordinates": [ 32.591704652415267, 0.342986811614536 ] } },
{ "type": "Feature", "properties": { "id": "way\/654714142", "@id": "way\/654714142", "addr:housenumber": "", "addr:street": "", "building": "yes", "name": "", "amenity": "" }, "geometry": { "type": "Point", "coordinates": [ 32.5924775, 0.3424759 ] } },
{ "type": "Feature", "properties": { "id": "way\/654714144", "@id": "way\/654714144", "addr:housenumber": "", "addr:street": "", "building": "yes", "name": "", "amenity": "" }, "geometry": { "type": "Point", "coordinates": [ 32.592201916493089, 0.342415672794309 ] } },
{ "type": "Feature", "properties": { "id": "way\/654714145", "@id": "way\/654714145", "addr:housenumber": "", "addr:street": "", "building": "yes", "name": "", "amenity": "" }, "geometry": { "type": "Point", "coordinates": [ 32.59170385, 0.34245635 ] } },
{ "type": "Feature", "properties": { "id": "way\/654714147", "@id": "way\/654714147", "addr:housenumber": "", "addr:street": "", "building": "yes", "name": "", "amenity": "" }, "geometry": { "type": "Point", "coordinates": [ 32.591624972323963, 0.342437956433537 ] } },
{ "type": "Feature", "properties": { "id": "way\/654714148", "@id": "way\/654714148", "addr:housenumber": "", "addr:street": "", "building": "yes", "name": "", "amenity": "" }, "geometry": { "type": "Point", "coordinates": [ 32.591515667022009, 0.342173507052976 ] } },
{ "type": "Feature", "properties": { "id": "way\/654714150", "@id": "way\/654714150", "addr:housenumber": "", "addr:street": "", "building": "yes", "name": "", "amenity": "" }, "geometry": { "type": "Point", "coordinates": [ 32.591391174782324, 0.342182969260793 ] } },
{ "type": "Feature", "properties": { "id": "way\/654714151", "@id": "way\/654714151", "addr:housenumber": "", "addr:street": "", "building": "yes", "name": "", "amenity": "" }, "geometry": { "type": "Point", "coordinates": [ 32.591353652493417, 0.342183976748154 ] } },
{ "type": "Feature", "properties": { "id": "way\/654714153", "@id": "way\/654714153", "addr:housenumber": "", "addr:street": "", "building": "yes", "name": "", "amenity": "" }, "geometry": { "type": "Point", "coordinates": [ 32.591313846002258, 0.342174473508373 ] } },
{ "type": "Feature", "properties": { "id": "way\/654714155", "@id": "way\/654714155", "addr:housenumber": "", "addr:street": "", "building": "yes", "name": "", "amenity": "" }, "geometry": { "type": "Point", "coordinates": [ 32.591053482388958, 0.342247647133342 ] } },
{ "type": "Feature", "properties": { "id": "way\/654714157", "@id": "way\/654714157", "addr:housenumber": "", "addr:street": "", "building": "yes", "name": "", "amenity": "" }, "geometry": { "type": "Point", "coordinates": [ 32.59112, 0.3422395 ] } },
{ "type": "Feature", "properties": { "id": "way\/654714158", "@id": "way\/654714158", "addr:housenumber": "", "addr:street": "", "building": "yes", "name": "", "amenity": "" }, "geometry": { "type": "Point", "coordinates": [ 32.591081700000011, 0.3421938 ] } },
{ "type": "Feature", "properties": { "id": "way\/654714160", "@id": "way\/654714160", "addr:housenumber": "", "addr:street": "", "building": "yes", "name": "", "amenity": "" }, "geometry": { "type": "Point", "coordinates": [ 32.59172222487603, 0.342759094229406 ] } },
{ "type": "Feature", "properties": { "id": "way\/654714161", "@id": "way\/654714161", "addr:housenumber": "", "addr:street": "", "building": "yes", "name": "", "amenity": "" }, "geometry": { "type": "Point", "coordinates": [ 32.591401407518568, 0.343116446683289 ] } },
{ "type": "Feature", "properties": { "id": "way\/654714163", "@id": "way\/654714163", "addr:housenumber": "", "addr:street": "", "building": "yes", "name": "", "amenity": "" }, "geometry": { "type": "Point", "coordinates": [ 32.591347983706534, 0.343129317010936 ] } },
{ "type": "Feature", "properties": { "id": "way\/654714165", "@id": "way\/654714165", "addr:housenumber": "", "addr:street": "", "building": "yes", "name": "", "amenity": "" }, "geometry": { "type": "Point", "coordinates": [ 32.591159847657373, 0.343106017668474 ] } },
{ "type": "Feature", "properties": { "id": "way\/654714166", "@id": "way\/654714166", "addr:housenumber": "", "addr:street": "", "building": "yes", "name": "", "amenity": "" }, "geometry": { "type": "Point", "coordinates": [ 32.5915655, 0.3428164 ] } },
{ "type": "Feature", "properties": { "id": "way\/654714168", "@id": "way\/654714168", "addr:housenumber": "", "addr:street": "", "building": "yes", "name": "", "amenity": "" }, "geometry": { "type": "Point", "coordinates": [ 32.591482436024684, 0.342770032121083 ] } },
{ "type": "Feature", "properties": { "id": "way\/654714169", "@id": "way\/654714169", "addr:housenumber": "", "addr:street": "", "building": "yes", "name": "", "amenity": "" }, "geometry": { "type": "Point", "coordinates": [ 32.591328234326134, 0.342840805868168 ] } },
{ "type": "Feature", "properties": { "id": "way\/654714175", "@id": "way\/654714175", "addr:housenumber": "", "addr:street": "", "building": "yes", "name": "", "amenity": "" }, "geometry": { "type": "Point", "coordinates": [ 32.591190017837036, 0.342844092085431 ] } },
{ "type": "Feature", "properties": { "id": "way\/655031470", "@id": "way\/655031470", "addr:housenumber": "", "addr:street": "", "building": "yes", "name": "", "amenity": "" }, "geometry": { "type": "Point", "coordinates": [ 32.591727374446847, 0.342816592644678 ] } },
{ "type": "Feature", "properties": { "id": "way\/655031471", "@id": "way\/655031471", "addr:housenumber": "", "addr:street": "", "building": "yes", "name": "", "amenity": "" }, "geometry": { "type": "Point", "coordinates": [ 32.591273158973763, 0.3427521245505 ] } },
{ "type": "Feature", "properties": { "id": "way\/655031473", "@id": "way\/655031473", "addr:housenumber": "", "addr:street": "", "building": "yes", "name": "", "amenity": "" }, "geometry": { "type": "Point", "coordinates": [ 32.591542193170021, 0.343041418733949 ] } },
{ "type": "Feature", "properties": { "id": "way\/665222343", "@id": "way\/665222343", "addr:housenumber": "", "addr:street": "", "building": "office", "name": "", "amenity": "" }, "geometry": { "type": "Point", "coordinates": [ 32.594327839828374, 0.342079332073417 ] } },
{ "type": "Feature", "properties": { "id": "way\/665222344", "@id": "way\/665222344", "addr:housenumber": "", "addr:street": "", "building": "yes", "name": "", "amenity": "" }, "geometry": { "type": "Point", "coordinates": [ 32.59379454142227, 0.342146188864965 ] } },
{ "type": "Feature", "properties": { "id": "way\/955325518", "@id": "way\/955325518", "addr:housenumber": "", "addr:street": "", "building": "yes", "name": "", "amenity": "" }, "geometry": { "type": "Point", "coordinates": [ 32.591488309868154, 0.343075413207351 ] } },
{ "type": "Feature", "properties": { "id": "way\/959935795", "@id": "way\/959935795", "addr:housenumber": "", "addr:street": "", "building": "", "name": "", "amenity": "parking" }, "geometry": { "type": "Point", "coordinates": [ 32.593564447052579, 0.343022625875006 ] } },
{ "type": "Feature", "properties": { "id": "way\/959935815", "@id": "way\/959935815", "addr:housenumber": "", "addr:street": "", "building": "yes", "name": "", "amenity": "" }, "geometry": { "type": "Point", "coordinates": [ 32.593490476717122, 0.342857955862765 ] } },
{ "type": "Feature", "properties": { "id": "way\/959935816", "@id": "way\/959935816", "addr:housenumber": "", "addr:street": "", "building": "yes", "name": "", "amenity": "" }, "geometry": { "type": "Point", "coordinates": [ 32.593515123237601, 0.342820844555514 ] } },
{ "type": "Feature", "properties": { "id": "way\/959935817", "@id": "way\/959935817", "addr:housenumber": "", "addr:street": "", "building": "yes", "name": "", "amenity": "" }, "geometry": { "type": "Point", "coordinates": [ 32.593517153259711, 0.342855616542593 ] } },
{ "type": "Feature", "properties": { "id": "way\/959935830", "@id": "way\/959935830", "addr:housenumber": "", "addr:street": "", "building": "", "name": "", "amenity": "parking" }, "geometry": { "type": "Point", "coordinates": [ 32.593439238026363, 0.343044547706865 ] } },
{ "type": "Feature", "properties": { "id": "way\/959935840", "@id": "way\/959935840", "addr:housenumber": "", "addr:street": "", "building": "yes", "name": "", "amenity": "" }, "geometry": { "type": "Point", "coordinates": [ 32.593227210120638, 0.34276912343271 ] } },
{ "type": "Feature", "properties": { "id": "way\/959936043", "@id": "way\/959936043", "addr:housenumber": "", "addr:street": "", "building": "yes", "name": "", "amenity": "" }, "geometry": { "type": "Point", "coordinates": [ 32.59322767616343, 0.342969547113268 ] } },
{ "type": "Feature", "properties": { "id": "way\/959936046", "@id": "way\/959936046", "addr:housenumber": "", "addr:street": "", "building": "", "name": "", "amenity": "parking" }, "geometry": { "type": "Point", "coordinates": [ 32.593181019487844, 0.343068404431339 ] } },
{ "type": "Feature", "properties": { "id": "way\/959936047", "@id": "way\/959936047", "addr:housenumber": "", "addr:street": "", "building": "", "name": "", "amenity": "parking" }, "geometry": { "type": "Point", "coordinates": [ 32.593335097996054, 0.343048598058682 ] } },
{ "type": "Feature", "properties": { "id": "way\/959936048", "@id": "way\/959936048", "addr:housenumber": "", "addr:street": "", "building": "", "name": "", "amenity": "parking" }, "geometry": { "type": "Point", "coordinates": [ 32.593246311197007, 0.343060647394307 ] } },
{ "type": "Feature", "properties": { "id": "way\/959936049", "@id": "way\/959936049", "addr:housenumber": "", "addr:street": "", "building": "", "name": "", "amenity": "parking" }, "geometry": { "type": "Point", "coordinates": [ 32.593153860483646, 0.343071928878524 ] } },
{ "type": "Feature", "properties": { "id": "way\/959936055", "@id": "way\/959936055", "addr:housenumber": "", "addr:street": "", "building": "yes", "name": "", "amenity": "" }, "geometry": { "type": "Point", "coordinates": [ 32.592534277165015, 0.342934605210002 ] } },
{ "type": "Feature", "properties": { "id": "way\/959936057", "@id": "way\/959936057", "addr:housenumber": "", "addr:street": "", "building": "yes", "name": "", "amenity": "" }, "geometry": { "type": "Point", "coordinates": [ 32.59234435, 0.34298335 ] } },
{ "type": "Feature", "properties": { "id": "way\/959936058", "@id": "way\/959936058", "addr:housenumber": "", "addr:street": "", "building": "yes", "name": "", "amenity": "" }, "geometry": { "type": "Point", "coordinates": [ 32.592336459703461, 0.342876711470099 ] } },
{ "type": "Feature", "properties": { "id": "way\/959936071", "@id": "way\/959936071", "addr:housenumber": "", "addr:street": "", "building": "yes", "name": "", "amenity": "" }, "geometry": { "type": "Point", "coordinates": [ 32.593198782528631, 0.343002122964788 ] } },
{ "type": "Feature", "properties": { "id": "way\/959936072", "@id": "way\/959936072", "addr:housenumber": "", "addr:street": "", "building": "yes", "name": "", "amenity": "" }, "geometry": { "type": "Point", "coordinates": [ 32.59315425, 0.34301015 ] } },
{ "type": "Feature", "properties": { "id": "way\/959936080", "@id": "way\/959936080", "addr:housenumber": "", "addr:street": "", "building": "yes", "name": "", "amenity": "" }, "geometry": { "type": "Point", "coordinates": [ 32.593287416375837, 0.343002075823161 ] } },
{ "type": "Feature", "properties": { "id": "way\/959936127", "@id": "way\/959936127", "addr:housenumber": "", "addr:street": "", "building": "yes", "name": "", "amenity": "" }, "geometry": { "type": "Point", "coordinates": [ 32.595133679343576, 0.34233015687052 ] } },
{ "type": "Feature", "properties": { "id": "way\/959936128", "@id": "way\/959936128", "addr:housenumber": "", "addr:street": "", "building": "yes", "name": "", "amenity": "" }, "geometry": { "type": "Point", "coordinates": [ 32.594789789217742, 0.342578027077977 ] } },
{ "type": "Feature", "properties": { "id": "way\/959936133", "@id": "way\/959936133", "addr:housenumber": "", "addr:street": "", "building": "yes", "name": "", "amenity": "" }, "geometry": { "type": "Point", "coordinates": [ 32.592981736081647, 0.343040176491386 ] } },
{ "type": "Feature", "properties": { "id": "way\/959936135", "@id": "way\/959936135", "addr:housenumber": "", "addr:street": "", "building": "yes", "name": "", "amenity": "" }, "geometry": { "type": "Point", "coordinates": [ 32.594028181672599, 0.342477339088876 ] } },
{ "type": "Feature", "properties": { "id": "way\/959936148", "@id": "way\/959936148", "addr:housenumber": "", "addr:street": "", "building": "yes", "name": "", "amenity": "" }, "geometry": { "type": "Point", "coordinates": [ 32.593504096934893, 0.342990627728562 ] } },
{ "type": "Feature", "properties": { "id": "way\/959936151", "@id": "way\/959936151", "addr:housenumber": "", "addr:street": "", "building": "yes", "name": "", "amenity": "" }, "geometry": { "type": "Point", "coordinates": [ 32.593413390074424, 0.342873165238106 ] } },
{ "type": "Feature", "properties": { "id": "way\/959936152", "@id": "way\/959936152", "addr:housenumber": "", "addr:street": "", "building": "yes", "name": "", "amenity": "" }, "geometry": { "type": "Point", "coordinates": [ 32.593469642096103, 0.342827273542101 ] } },
{ "type": "Feature", "properties": { "id": "way\/959936153", "@id": "way\/959936153", "addr:housenumber": "", "addr:street": "", "building": "yes", "name": "", "amenity": "" }, "geometry": { "type": "Point", "coordinates": [ 32.593462042912904, 0.342764621015003 ] } },
{ "type": "Feature", "properties": { "id": "way\/959936154", "@id": "way\/959936154", "addr:housenumber": "", "addr:street": "", "building": "yes", "name": "", "amenity": "" }, "geometry": { "type": "Point", "coordinates": [ 32.5939756, 0.34264865 ] } },
{ "type": "Feature", "properties": { "id": "way\/959936155", "@id": "way\/959936155", "addr:housenumber": "", "addr:street": "", "building": "yes", "name": "", "amenity": "" }, "geometry": { "type": "Point", "coordinates": [ 32.593630481751518, 0.342742074506572 ] } },
{ "type": "Feature", "properties": { "id": "way\/959936156", "@id": "way\/959936156", "addr:housenumber": "", "addr:street": "", "building": "yes", "name": "", "amenity": "" }, "geometry": { "type": "Point", "coordinates": [ 32.593712250368291, 0.342700001001316 ] } },
{ "type": "Feature", "properties": { "id": "way\/959936157", "@id": "way\/959936157", "addr:housenumber": "", "addr:street": "", "building": "yes", "name": "", "amenity": "" }, "geometry": { "type": "Point", "coordinates": [ 32.593675042144568, 0.342694707073517 ] } },
{ "type": "Feature", "properties": { "id": "way\/959936158", "@id": "way\/959936158", "addr:housenumber": "", "addr:street": "", "building": "yes", "name": "", "amenity": "" }, "geometry": { "type": "Point", "coordinates": [ 32.593695199383212, 0.342731296245198 ] } },
{ "type": "Feature", "properties": { "id": "way\/959936159", "@id": "way\/959936159", "addr:housenumber": "", "addr:street": "", "building": "yes", "name": "", "amenity": "" }, "geometry": { "type": "Point", "coordinates": [ 32.59370507858646, 0.342794202493574 ] } },
{ "type": "Feature", "properties": { "id": "way\/959936160", "@id": "way\/959936160", "addr:housenumber": "", "addr:street": "", "building": "yes", "name": "", "amenity": "" }, "geometry": { "type": "Point", "coordinates": [ 32.593697781014939, 0.342835390152229 ] } },
{ "type": "Feature", "properties": { "id": "way\/959936162", "@id": "way\/959936162", "addr:housenumber": "", "addr:street": "", "building": "yes", "name": "", "amenity": "" }, "geometry": { "type": "Point", "coordinates": [ 32.594252480274832, 0.342862278295043 ] } },
{ "type": "Feature", "properties": { "id": "way\/959936163", "@id": "way\/959936163", "addr:housenumber": "", "addr:street": "", "building": "yes", "name": "", "amenity": "" }, "geometry": { "type": "Point", "coordinates": [ 32.594231124990586, 0.342498675698403 ] } },
{ "type": "Feature", "properties": { "id": "way\/959936164", "@id": "way\/959936164", "addr:housenumber": "", "addr:street": "", "building": "yes", "name": "", "amenity": "" }, "geometry": { "type": "Point", "coordinates": [ 32.5944497, 0.34258515 ] } },
{ "type": "Feature", "properties": { "id": "way\/959936167", "@id": "way\/959936167", "addr:housenumber": "", "addr:street": "", "building": "yes", "name": "", "amenity": "" }, "geometry": { "type": "Point", "coordinates": [ 32.594499736705608, 0.342829688297533 ] } },
{ "type": "Feature", "properties": { "id": "way\/959936171", "@id": "way\/959936171", "addr:housenumber": "", "addr:street": "", "building": "yes", "name": "", "amenity": "" }, "geometry": { "type": "Point", "coordinates": [ 32.594710922542433, 0.342793844085198 ] } },
{ "type": "Feature", "properties": { "id": "way\/959936172", "@id": "way\/959936172", "addr:housenumber": "", "addr:street": "", "building": "yes", "name": "", "amenity": "" }, "geometry": { "type": "Point", "coordinates": [ 32.594669689685837, 0.342792588482917 ] } },
{ "type": "Feature", "properties": { "id": "way\/959936173", "@id": "way\/959936173", "addr:housenumber": "", "addr:street": "", "building": "yes", "name": "", "amenity": "" }, "geometry": { "type": "Point", "coordinates": [ 32.594446671551893, 0.342821871793428 ] } },
{ "type": "Feature", "properties": { "id": "way\/959936174", "@id": "way\/959936174", "addr:housenumber": "", "addr:street": "", "building": "yes", "name": "", "amenity": "" }, "geometry": { "type": "Point", "coordinates": [ 32.5941771, 0.3427084 ] } },
{ "type": "Feature", "properties": { "id": "way\/959936175", "@id": "way\/959936175", "addr:housenumber": "", "addr:street": "", "building": "yes", "name": "", "amenity": "" }, "geometry": { "type": "Point", "coordinates": [ 32.594224077592564, 0.342859127652306 ] } },
{ "type": "Feature", "properties": { "id": "way\/959936176", "@id": "way\/959936176", "addr:housenumber": "", "addr:street": "", "building": "yes", "name": "", "amenity": "" }, "geometry": { "type": "Point", "coordinates": [ 32.594165517361702, 0.342862830476776 ] } },
{ "type": "Feature", "properties": { "id": "way\/959936177", "@id": "way\/959936177", "addr:housenumber": "", "addr:street": "", "building": "yes", "name": "", "amenity": "" }, "geometry": { "type": "Point", "coordinates": [ 32.594044954351098, 0.34288615801316 ] } },
{ "type": "Feature", "properties": { "id": "way\/959936178", "@id": "way\/959936178", "addr:housenumber": "", "addr:street": "", "building": "yes", "name": "", "amenity": "" }, "geometry": { "type": "Point", "coordinates": [ 32.5939186, 0.3428977 ] } },
{ "type": "Feature", "properties": { "id": "way\/959936179", "@id": "way\/959936179", "addr:housenumber": "", "addr:street": "", "building": "yes", "name": "", "amenity": "" }, "geometry": { "type": "Point", "coordinates": [ 32.593972027620893, 0.342893654674614 ] } },
{ "type": "Feature", "properties": { "id": "way\/960908545", "@id": "way\/960908545", "addr:housenumber": "", "addr:street": "", "building": "", "name": "", "amenity": "parking" }, "geometry": { "type": "Point", "coordinates": [ 32.59319068720086, 0.342007679412028 ] } },
{ "type": "Feature", "properties": { "id": "way\/960908567", "@id": "way\/960908567", "addr:housenumber": "", "addr:street": "", "building": "yes", "name": "", "amenity": "" }, "geometry": { "type": "Point", "coordinates": [ 32.593981324224387, 0.341146503005396 ] } },
{ "type": "Feature", "properties": { "id": "way\/960908570", "@id": "way\/960908570", "addr:housenumber": "", "addr:street": "", "building": "yes", "name": "", "amenity": "" }, "geometry": { "type": "Point", "coordinates": [ 32.59457555, 0.34128505 ] } },
{ "type": "Feature", "properties": { "id": "way\/960908573", "@id": "way\/960908573", "addr:housenumber": "", "addr:street": "", "building": "yes", "name": "", "amenity": "" }, "geometry": { "type": "Point", "coordinates": [ 32.59484845, 0.3414693 ] } },
{ "type": "Feature", "properties": { "id": "way\/960908579", "@id": "way\/960908579", "addr:housenumber": "", "addr:street": "", "building": "yes", "name": "", "amenity": "" }, "geometry": { "type": "Point", "coordinates": [ 32.594588789049482, 0.341369338408023 ] } },
{ "type": "Feature", "properties": { "id": "way\/960908580", "@id": "way\/960908580", "addr:housenumber": "", "addr:street": "", "building": "yes", "name": "", "amenity": "" }, "geometry": { "type": "Point", "coordinates": [ 32.594504918317519, 0.341400933153347 ] } },
{ "type": "Feature", "properties": { "id": "way\/364367723", "@id": "way\/364367723", "addr:housenumber": "", "addr:street": "", "building": "yes", "name": "", "amenity": "" }, "geometry": { "type": "Point", "coordinates": [ 32.593226026805674, 0.342887698918096 ] } },
{ "type": "Feature", "properties": { "id": "way\/364367727", "@id": "way\/364367727", "addr:housenumber": "", "addr:street": "", "building": "yes", "name": "", "amenity": "" }, "geometry": { "type": "Point", "coordinates": [ 32.593492896838796, 0.342945988107537 ] } },
{ "type": "Feature", "properties": { "id": "way\/959935800", "@id": "way\/959935800", "addr:housenumber": "", "addr:street": "", "building": "", "name": "", "amenity": "" }, "geometry": { "type": "Point", "coordinates": [ 32.593475923377582, 0.342926792035399 ] } },
{ "type": "Feature", "properties": { "id": "way\/959935829", "@id": "way\/959935829", "addr:housenumber": "", "addr:street": "", "building": "", "name": "", "amenity": "" }, "geometry": { "type": "Point", "coordinates": [ 32.5934926253749, 0.342945932562611 ] } },
{ "type": "Feature", "properties": { "id": "way\/959935841", "@id": "way\/959935841", "addr:housenumber": "", "addr:street": "", "building": "", "name": "", "amenity": "" }, "geometry": { "type": "Point", "coordinates": [ 32.593337914704946, 0.342996869103321 ] } },
{ "type": "Feature", "properties": { "id": "way\/959935842", "@id": "way\/959935842", "addr:housenumber": "", "addr:street": "", "building": "", "name": "", "amenity": "" }, "geometry": { "type": "Point", "coordinates": [ 32.593329326766877, 0.343008158690886 ] } },
{ "type": "Feature", "properties": { "id": "way\/959935863", "@id": "way\/959935863", "addr:housenumber": "", "addr:street": "", "building": "", "name": "", "amenity": "" }, "geometry": { "type": "Point", "coordinates": [ 32.593294355476573, 0.34288059282374 ] } },
{ "type": "Feature", "properties": { "id": "way\/959935864", "@id": "way\/959935864", "addr:housenumber": "", "addr:street": "", "building": "", "name": "", "amenity": "" }, "geometry": { "type": "Point", "coordinates": [ 32.593162231373888, 0.342894597290442 ] } },
{ "type": "Feature", "properties": { "id": "way\/959935865", "@id": "way\/959935865", "addr:housenumber": "", "addr:street": "", "building": "residential", "name": "", "amenity": "" }, "geometry": { "type": "Point", "coordinates": [ 32.593244835817799, 0.343004016591583 ] } },
{ "type": "Feature", "properties": { "id": "way\/959935867", "@id": "way\/959935867", "addr:housenumber": "", "addr:street": "", "building": "", "name": "", "amenity": "" }, "geometry": { "type": "Point", "coordinates": [ 32.593219, 0.3429925 ] } },
{ "type": "Feature", "properties": { "id": "way\/959935868", "@id": "way\/959935868", "addr:housenumber": "", "addr:street": "", "building": "", "name": "", "amenity": "" }, "geometry": { "type": "Point", "coordinates": [ 32.593229999968948, 0.34300571272318 ] } },
{ "type": "Feature", "properties": { "id": "way\/959935875", "@id": "way\/959935875", "addr:housenumber": "", "addr:street": "", "building": "", "name": "", "amenity": "" }, "geometry": { "type": "Point", "coordinates": [ 32.593259769341806, 0.343002474501214 ] } },
{ "type": "Feature", "properties": { "id": "way\/959935876", "@id": "way\/959935876", "addr:housenumber": "", "addr:street": "", "building": "", "name": "", "amenity": "" }, "geometry": { "type": "Point", "coordinates": [ 32.593268573233118, 0.342987041309113 ] } },
{ "type": "Feature", "properties": { "id": "way\/959936074", "@id": "way\/959936074", "addr:housenumber": "", "addr:street": "", "building": "yes", "name": "", "amenity": "" }, "geometry": { "type": "Point", "coordinates": [ 32.593337964700083, 0.342996869114576 ] } },
{ "type": "Feature", "properties": { "id": "way\/959936184", "@id": "way\/959936184", "addr:housenumber": "", "addr:street": "", "building": "", "name": "", "amenity": "" }, "geometry": { "type": "Point", "coordinates": [ 32.594406513899379, 0.34303427163522 ] } },
{ "type": "Feature", "properties": { "id": "way\/959936185", "@id": "way\/959936185", "addr:housenumber": "", "addr:street": "", "building": "", "name": "", "amenity": "" }, "geometry": { "type": "Point", "coordinates": [ 32.5944064, 0.3430343 ] } },
{ "type": "Feature", "properties": { "id": "way\/959936186", "@id": "way\/959936186", "addr:housenumber": "", "addr:street": "", "building": "yes", "name": "U2006 geodetic marker", "amenity": "" }, "geometry": { "type": "Point", "coordinates": [ 32.59440645, 0.34303425 ] } }
]
}
